IRIDIUM 64 [+]          
1 25287U 98021C   17166.13329328  .00000129  00000-0  46123-4 0  9998
2 25287  86.3953 224.7938 0001533  80.4970 279.7051 14.34220191  4737
IRIDIUM 65 [+]          
1 25288U 98021D   17166.06986696  .00000258  00000-0  92075-4 0  9998
2 25288  86.3924 224.7192 0002312 301.2199  58.9422 14.34221239  4802
IRIDIUM 66 [+]          
1 25289U 98021E   17166.07621550  .00000089  00000-0  31714-4 0  9990
2 25289  86.3948 224.6247 0001748  77.8920 282.3123 14.34219691  4708
IRIDIUM 67 [+]          
1 25290U 98021F   17166.08254821  .00000091  00000-0  32516-4 0  9990
2 25290  86.3957 224.7591 0001699  78.7149 281.4889 14.34219868  4728
IRIDIUM 68 [+]          
1 25291U 98021G   17166.08889914  .00000131  00000-0  46878-4 0  9999
2 25291  86.3951 224.8747 0001643  80.9032 279.3001 14.34220292  4705
IRIDIUM 69 [-]          
1 25319U 98026A   17166.09465590  .00000105  00000-0  34196-4 0  9997
2 25319  86.3971 246.5794 0000754 346.2667  13.9140 14.38670747  2730
IRIDIUM 71 [-]          
1 25320U 98026B   17166.15507336  .00000090  00000-0  28984-4 0  9992
2 25320  86.3952 242.4448 0002723  30.1019 330.0973 14.39086373  3173
IRIDIUM 70 [+]          
1 25342U 98032A   17166.04450109  .00000037  00000-0  13213-4 0  9996
2 25342  86.3973 225.1372 0001770  79.3082 280.8965 14.34219204998790
IRIDIUM 72 [+]          
1 25343U 98032B   17166.10158016  .00000098  00000-0  34936-4 0  9998
2 25343  86.3957 224.7239 0001647  78.8547 281.3486 14.34219906998842
IRIDIUM 73 [-]          
1 25344U 98032C   17166.07143735  .00000013  00000-0  35166-5 0  9991
2 25344  86.4420 203.8297 0002370  82.6275 277.5844 14.49038778  7248
IRIDIUM 74 [-]          
1 25345U 98032D   17162.54796321 -.09071452 -21083-5 -59847-4 0  9992
2 25345  86.4257 226.3531 0170155 339.6866  19.6941 16.25227347  1960
IRIDIUM 75 [+]          
1 25346U 98032E   17166.10791016 -.00000077  00000-0  00000+0 0  9992
2 25346  86.3956 224.9731 0001714  80.2310 279.9731 14.34218331999559
IRIDIUM 3 [+]           
1 25431U 98048A   17166.16207956 -.00000595  00000-0  00000+0 0  9990
2 25431  86.3922 256.5348 0001797  77.8677 282.3327 14.34212033985323
IRIDIUM 76 [+]          
1 25432U 98048B   17166.18103579  .00000130  00000-0  46392-4 0  9992
2 25432  86.3925 256.2797 0001938  92.3220 267.8805 14.34212540985316
IRIDIUM 82 [-]          
1 25467U 98051A   17166.32488984  .00000805  00000-0  61656-4 0  9995
2 25467  86.3999  21.3634 0184855  38.1005 323.3769 14.89242882986573
IRIDIUM 81 [+]          
1 25468U 98051B   17166.01888573  .00000053  00000-0  17238-4 0  9992
2 25468  86.4229  22.6982 0001718  94.2193 265.9838 14.38613059982530
IRIDIUM 80 [+]          
1 25469U 98051C   17166.00451834 -.00000137  00000-0  00000+0 0  9996
2 25469  86.3954  23.0000 0000953  65.2972 294.8959 14.34214858983675
IRIDIUM 77 [+]          
1 25471U 98051E   17166.02518664  .00000084  00000-0  27437-4 0  9994
2 25471  86.4221  22.5453 0001828  72.8327 287.3709 14.38613150988613
IRIDIUM 2 [-]           
1 25527U 98066A   17166.01114339  .00001296  00000-0  66481-4 0  9990
2 25527  85.5294  33.5357 0010990  94.9426 265.3747 15.16534201 17544
IRIDIUM 86 [+]          
1 25528U 98066B   17166.43870875 -.00000086  00000-0  00000+0 0  9998
2 25528  86.3956 350.5289 0001511  75.1988 284.9944 14.34215670979221
IRIDIUM 84 [+]          
1 25530U 98066D   17166.47041480 -.00000088  00000-0  00000+0 0  9999
2 25530  86.3949 350.6799 0001529  80.1486 280.0451 14.34216091976754
IRIDIUM 83 [+]          
1 25531U 98066E   17165.94397963 -.00000085  00000-0  00000+0 0  9998
2 25531  86.3957 351.0262 0001549  88.0292 272.1650 14.34216288974094
IRIDIUM 20 [+]          
1 25577U 98074A   17166.21281543  .00000061  00000-0  21751-4 0  9998
2 25577  86.3913 256.1863 0001690  80.7347 279.4647 14.34222269968157
IRIDIUM 11 [+]          
1 25578U 98074B   17166.15572985  .00000000  00000-0  00000+0 0  9997
2 25578  86.3928 256.4133 0001515  76.9706 283.2266 14.34222332977116
IRIDIUM 14 [+]          
1 25777U 99032A   17166.05719421  .00000099  00000-0  35444-4 0  9993
2 25777  86.3958 224.8247 0001752  78.8752 281.3292 14.34219328954473
IRIDIUM 21 [+]          
1 25778U 99032B   17166.09523909  .00000112  00000-0  40160-4 0  9999
2 25778  86.3952 224.8282 0001673  87.6594 272.5445 14.34219933947950
IRIDIUM 91 [+]          
1 27372U 02005A   17166.20357494  .00000094  00000-0  33445-4 0  9999
2 27372  86.3932 287.9847 0002055  78.6203 281.5761 14.34213125811463
IRIDIUM 90 [S]          
1 27373U 02005B   17166.38771948 -.00000063  00000-0  00000+0 0  9996
2 27373  86.4458 350.8241 0001732  79.7278 280.4692 14.42949241811141
IRIDIUM 94 [+]          
1 27374U 02005C   17166.17476635 -.00000438  00000-0  00000+0 0  9995
2 27374  86.3919 256.5366 0002208  81.9846 278.2207 14.34211066815664
IRIDIUM 95 [+]          
1 27375U 02005D   17166.24163536  .00000088  00000-0  31310-4 0  9990
2 27375  86.3907 287.9911 0002524  93.4971 266.7052 14.34212927810633
IRIDIUM 96 [+]          
1 27376U 02005E   17166.14985223 -.00000037  00000-0  00000+0 0  9997
2 27376  86.3968 320.0615 0002336 109.6679 250.5287 14.34212009815825
IRIDIUM 97 [+]          
1 27450U 02031A   17166.32744067 -.00000286  00000-0  00000+0 0  9994
2 27450  86.3948 319.6656 0001365  84.1835 276.0035 14.34211014790086
IRIDIUM 98 [+]          
1 27451U 02031B   17166.01086475  .00000085  18350-7  30302-4 0  9996
2 27451  86.3945  23.0965 0001587  58.5747 301.6239 14.34218517791342
